{"type": "FeatureCollection", "features": [ {"type": "Feature", "properties": {"norad_id": 60453, "name": "LEGION 4", "group": "resource", "lat": -32.465105554654116, "lon": -48.464779757725175, "alt_km": 516.3849473748642, "timestamp": "2025-12-03T08:58:45.657103+00:00", "meta": {"OBJECT_NAME": "LEGION 4", "OBJECT_ID": "2024-146B", "EPOCH": "2025-12-02T19:19:00.365376", "MEAN_MOTION": 15.15650454, "ECCENTRICITY": 0.0009876, "INCLINATION": 45.0377, "RA_OF_ASC_NODE": 95.1053, "ARG_OF_PERICENTER": 259.4625, "MEAN_ANOMALY": 100.5141, "EPHEMERIS_TYPE": 0, "CLASSIFICATION_TYPE": "U", "NORAD_CAT_ID": 60453, "ELEMENT_SET_NO": 999, "REV_AT_EPOCH": 7107, "BSTAR": 0.00045505, "MEAN_MOTION_DOT": 8.556e-05, "MEAN_MOTION_DDOT": 0}, "tle": {"line1": "1 60453U 24146B   25336.80486534  .00008556  00000+0  45505-3 0  9997", "line2": "2 60453  45.0377  95.1053 0009876 259.4625 100.5141 15.15650454 71075"}}, "geometry": {"type": "Point", "coordinates": [-48.464779757725175, -32.465105554654116]}}, {"type": "Feature", "properties": {"norad_id": 60989, "name": "SENTINEL-2C", "group": "resource", "lat": 29.004296509361, "lon": 45.20148487793076, "alt_km": 787.306918071653, "timestamp": "2025-12-03T08:58:45.657116+00:00", "meta": {"OBJECT_NAME": "SENTINEL-2C", "OBJECT_ID": "2024-157A", "EPOCH": "2025-12-03T03:48:27.397152", "MEAN_MOTION": 14.30823791, "ECCENTRICITY": 0.0001149, "INCLINATION": 98.5614, "RA_OF_ASC_NODE": 49.7801, "ARG_OF_PERICENTER": 101.933, "MEAN_ANOMALY": 258.1982, "EPHEMERIS_TYPE": 0, "CLASSIFICATION_TYPE": "U", "NORAD_CAT_ID": 60989, "ELEMENT_SET_NO": 999, "REV_AT_EPOCH": 6495, "BSTAR": 9.6841e-05, "MEAN_MOTION_DOT": 2.1e-06, "MEAN_MOTION_DDOT": 0}, "tle": {"line1": "1 60989U 24157A   25337.15865043  .00000210  00000+0  96841-4 0  9997", "line2": "2 60989  98.5614  49.7801 0001149 101.9330 258.1982 14.30823791 64955"}}, "geometry": {"type": "Point", "coordinates": [45.20148487793076, 29.004296509361]}}, {"type": "Feature", "properties": {"norad_id": 61735, "name": "IONOSFERA-M 1", "group": "resource", "lat": -28.327525900858912, "lon": 22.536412955699873, "alt_km": 822.9683223207257, "timestamp": "2025-12-03T08:58:45.657127+00:00", "meta": {"OBJECT_NAME": "IONOSFERA-M 1", "OBJECT_ID": "2024-199A", "EPOCH": "2025-12-03T04:37:34.519296", "MEAN_MOTION": 14.22710519, "ECCENTRICITY": 0.0001381, "INCLINATION": 98.7409, "RA_OF_ASC_NODE": 207.1138, "ARG_OF_PERICENTER": 35.2663, "MEAN_ANOMALY": 324.8606, "EPHEMERIS_TYPE": 0, "CLASSIFICATION_TYPE": "U", "NORAD_CAT_ID": 61735, "ELEMENT_SET_NO": 999, "REV_AT_EPOCH": 9983, "BSTAR": 6.7266e-05, "MEAN_MOTION_DOT": 1.06e-06, "MEAN_MOTION_DDOT": 0}, "tle": {"line1": "1 61735U 24199A   25337.19276064  .00000106  00000+0  67266-4 0  9999", "line2": "2 61735  98.7409 207.1138 0001381  35.2663 324.8606 14.22710519 99831"}}, "geometry": {"type": "Point", "coordinates": [22.536412955699873, -28.327525900858912]}}, {"type": "Feature", "properties": {"norad_id": 61736, "name": "IONOSFERA-M 2", "group": "resource", "lat": 30.66075228505128, "lon": -158.0267010610754, "alt_km": 814.503910138098, "timestamp": "2025-12-03T08:58:45.657137+00:00", "meta": {"OBJECT_NAME": "IONOSFERA-M 2", "OBJECT_ID": "2024-199B", "EPOCH": "2025-12-03T03:46:12.711648", "MEAN_MOTION": 14.22712588, "ECCENTRICITY": 0.0001372, "INCLINATION": 98.7408, "RA_OF_ASC_NODE": 206.991, "ARG_OF_PERICENTER": 121.9583, "MEAN_ANOMALY": 238.1728, "EPHEMERIS_TYPE": 0, "CLASSIFICATION_TYPE": "U", "NORAD_CAT_ID": 61736, "ELEMENT_SET_NO": 999, "REV_AT_EPOCH": 10295, "BSTAR": 6.8284e-05, "MEAN_MOTION_DOT": 1.09e-06, "MEAN_MOTION_DDOT": 0}, "tle": {"line1": "1 61736U 24199B   25337.15709157  .00000109  00000+0  68284-4 0  9994", "line2": "2 61736  98.7408 206.9910 0001372 121.9583 238.1728 14.22712588102958"}}, "geometry": {"type": "Point", "coordinates": [-158.0267010610754, 30.66075228505128]}}, {"type": "Feature", "properties": {"norad_id": 63772, "name": "BIOMASS", "group": "resource", "lat": 24.805043785019723, "lon": -13.720811674458679, "alt_km": 668.1317228332791, "timestamp": "2025-12-03T08:58:45.657148+00:00", "meta": {"OBJECT_NAME": "BIOMASS", "OBJECT_ID": "2025-090A", "EPOCH": "2025-12-03T01:43:50.691936", "MEAN_MOTION": 14.67533272, "ECCENTRICITY": 0.0001159, "INCLINATION": 98.0704, "RA_OF_ASC_NODE": 162.2217, "ARG_OF_PERICENTER": 74.946, "MEAN_ANOMALY": 285.1873, "EPHEMERIS_TYPE": 0, "CLASSIFICATION_TYPE": "U", "NORAD_CAT_ID": 63772, "ELEMENT_SET_NO": 999, "REV_AT_EPOCH": 3192, "BSTAR": 0.00034239, "MEAN_MOTION_DOT": 1.894e-05, "MEAN_MOTION_DDOT": 0}, "tle": {"line1": "1 63772U 25090A   25337.07211449  .00001894  00000+0  34239-3 0  9994", "line2": "2 63772  98.0704 162.2217 0001159  74.9460 285.1873 14.67533272 31921"}}, "geometry": {"type": "Point", "coordinates": [-13.720811674458679, 24.805043785019723]}}, {"type": "Feature", "properties": {"norad_id": 64694, "name": "GOSAT-GW (IBUKI GW)", "group": "resource", "lat": 3.3890349391349184, "lon": -87.42331530095701, "alt_km": 671.0133429962534, "timestamp": "2025-12-03T08:58:45.657158+00:00", "meta": {"OBJECT_NAME": "GOSAT-GW (IBUKI GW)", "OBJECT_ID": "2025-141A", "EPOCH": "2025-11-30T05:41:32.267328", "MEAN_MOTION": 14.67567435, "ECCENTRICITY": 0.00014369, "INCLINATION": 98.0401, "RA_OF_ASC_NODE": 269.9775, "ARG_OF_PERICENTER": 82.921, "MEAN_ANOMALY": 277.2158, "EPHEMERIS_TYPE": 0, "CLASSIFICATION_TYPE": "U", "NORAD_CAT_ID": 64694, "ELEMENT_SET_NO": 999, "REV_AT_EPOCH": 2266, "BSTAR": 0.00019762357, "MEAN_MOTION_DOT": 1.074e-05, "MEAN_MOTION_DDOT": 0}, "tle": {"line1": "1 64694U 25141A   25334.23717902  .00001074  00000+0  19762-3 0  9999", "line2": "2 64694  98.0401 269.9775 0001436  82.9210 277.2158 14.67567435 22660"}}, "geometry": {"type": "Point", "coordinates": [-87.42331530095701, 3.3890349391349184]}}, {"type": "Feature", "properties": {"norad_id": 64876, "name": "IONOSFERA-M 3", "group": "resource", "lat": 60.27067980968742, "lon": 134.8298741388798, "alt_km": 813.3796393608409, "timestamp": "2025-12-03T08:58:45.657169+00:00", "meta": {"OBJECT_NAME": "IONOSFERA-M 3", "OBJECT_ID": "2025-155A", "EPOCH": "2025-12-03T05:02:42.531072", "MEAN_MOTION": 14.2143708, "ECCENTRICITY": 0.0002396, "INCLINATION": 98.5769, "RA_OF_ASC_NODE": 299.3467, "ARG_OF_PERICENTER": 74.8507, "MEAN_ANOMALY": 285.2936, "EPHEMERIS_TYPE": 0, "CLASSIFICATION_TYPE": "U", "NORAD_CAT_ID": 64876, "ELEMENT_SET_NO": 999, "REV_AT_EPOCH": 1856, "BSTAR": 6.9571e-05, "MEAN_MOTION_DOT": 1.09e-06, "MEAN_MOTION_DDOT": 0}, "tle": {"line1": "1 64876U 25155A   25337.21021448  .00000109  00000+0  69571-4 0  9992", "line2": "2 64876  98.5769 299.3467 0002396  74.8507 285.2936 14.21437080 18563"}}, "geometry": {"type": "Point", "coordinates": [134.8298741388798, 60.27067980968742]}}, {"type": "Feature", "properties": {"norad_id": 64877, "name": "IONOSFERA-M 4", "group": "resource", "lat": -59.81980769328439, "lon": -45.533414725370086, "alt_km": 828.47080598106, "timestamp": "2025-12-03T08:58:45.657179+00:00", "meta": {"OBJECT_NAME": "IONOSFERA-M 4", "OBJECT_ID": "2025-155B", "EPOCH": "2025-12-03T04:11:51.049824", "MEAN_MOTION": 14.21438168, "ECCENTRICITY": 0.0001751, "INCLINATION": 98.5768, "RA_OF_ASC_NODE": 299.2321, "ARG_OF_PERICENTER": 73.3057, "MEAN_ANOMALY": 286.8312, "EPHEMERIS_TYPE": 0, "CLASSIFICATION_TYPE": "U", "NORAD_CAT_ID": 64877, "ELEMENT_SET_NO": 999, "REV_AT_EPOCH": 1855, "BSTAR": 7.5649e-05, "MEAN_MOTION_DOT": 1.23e-06, "MEAN_MOTION_DDOT": 0}, "tle": {"line1": "1 64877U 25155B   25337.17489641  .00000123  00000+0  75649-4 0  9990", "line2": "2 64877  98.5768 299.2321 0001751  73.3057 286.8312 14.21438168 18551"}}, "geometry": {"type": "Point", "coordinates": [-45.533414725370086, -59.81980769328439]}}, {"type": "Feature", "properties": {"norad_id": 64899, "name": "MICROCARB", "group": "resource", "lat": -10.341366380074119, "lon": -128.60167857047605, "alt_km": 647.7016516271142, "timestamp": "2025-12-03T08:58:45.657190+00:00", "meta": {"OBJECT_NAME": "MICROCARB", "OBJECT_ID": "2025-156A", "EPOCH": "2025-12-03T04:51:17.943264", "MEAN_MOTION": 14.72030926, "ECCENTRICITY": 0.0016515, "INCLINATION": 98.0035, "RA_OF_ASC_NODE": 52.7004, "ARG_OF_PERICENTER": 174.3539, "MEAN_ANOMALY": 185.7857, "EPHEMERIS_TYPE": 0, "CLASSIFICATION_TYPE": "U", "NORAD_CAT_ID": 64899, "ELEMENT_SET_NO": 999, "REV_AT_EPOCH": 1913, "BSTAR": 0.00017719, "MEAN_MOTION_DOT": 1.065e-05, "MEAN_MOTION_DDOT": 0}, "tle": {"line1": "1 64899U 25156A   25337.20229101  .00001065  00000+0  17719-3 0  9991", "line2": "2 64899  98.0035  52.7004 0016515 174.3539 185.7857 14.72030926 19130"}}, "geometry": {"type": "Point", "coordinates": [-128.60167857047605, -10.341366380074119]}}, {"type": "Feature", "properties": {"norad_id": 64900, "name": "CO3D 3", "group": "resource", "lat": -66.81470625140783, "lon": 71.23603719842166, "alt_km": 615.5987541036384, "timestamp": "2025-12-03T08:58:45.657200+00:00", "meta": {"OBJECT_NAME": "CO3D 3", "OBJECT_ID": "2025-156B", "EPOCH": "2025-11-29T13:08:11.122944", "MEAN_MOTION": 15.11495615, "ECCENTRICITY": 0.01368669, "INCLINATION": 97.6723, "RA_OF_ASC_NODE": 49.0485, "ARG_OF_PERICENTER": 160.1625, "MEAN_ANOMALY": 200.5002, "EPHEMERIS_TYPE": 0, "CLASSIFICATION_TYPE": "U", "NORAD_CAT_ID": 64900, "ELEMENT_SET_NO": 999, "REV_AT_EPOCH": 1920, "BSTAR": 0.00046350794, "MEAN_MOTION_DOT": 9.779e-05, "MEAN_MOTION_DDOT": 0}, "tle": {"line1": "1 64900U 25156B   25333.54735096  .00009779  00000+0  46351-3 0  9996", "line2": "2 64900  97.6723  49.0485 0136866 160.1625 200.5002 15.11495615 19205"}}, "geometry": {"type": "Point", "coordinates": [71.23603719842166, -66.81470625140783]}}]}